IRIDIUM 144             
1 43249U 18030A   25256.94725997  .00000263  00000+0  86725-4 0  9998
2 43249  86.3950  45.8641 0002176  90.9483 269.1962 14.34217070390547
IRIDIUM 149             
1 43250U 18030B   25256.88383600  .00000141  00000+0  43259-4 0  9994
2 43250  86.3950  45.8608 0002210  90.0604 270.0845 14.34218016390550
IRIDIUM 157             
1 43251U 18030C   25256.90286335  .00000210  00000+0  67983-4 0  9992
2 43251  86.3953  45.8999 0001914  90.7920 269.3495 14.34218245390539
IRIDIUM 140             
1 43252U 18030D   25256.85212364  .00000232  00000+0  75651-4 0  9993
2 43252  86.3953  45.9344 0002297  92.5625 267.5834 14.34217934390588
IRIDIUM 145             
1 43253U 18030E   25256.90920761  .00000050  00000+0  10947-4 0  9992
2 43253  86.3952  45.8833 0002508  86.2331 273.9152 14.34217341390529
IRIDIUM 146             
1 43254U 18030F   25256.89017920  .00000136  00000+0  41495-4 0  9992
2 43254  86.3952  45.9045 0002430  87.8447 272.3028 14.34217889390538
IRIDIUM 148             
1 43255U 18030G   25256.92823277  .00000233  00000+0  76071-4 0  9993
2 43255  86.3953  45.9274 0002054  87.9920 272.1511 14.34218630390577
IRIDIUM 142             
1 43256U 18030H   25256.89652192  .00000103  00000+0  29706-4 0  9995
2 43256  86.3950  45.8397 0002528  84.1899 275.9585 14.34217900390537
